SDA_1664                
1 65974U 25230A   25318.34253744  .00000241  00000+0  20396-3 0  9993
2 65974  81.3004  50.9477 0003070  42.2106 317.9287 13.84699671  4078
SDA_1665                
1 65975U 25230B   25318.39932227  .00000314  00000+0  26521-3 0  9996
2 65975  81.3041  50.8754 0004987  83.7532 276.4193 13.85429377  4089
SDA_1666                
1 65976U 25230C   25318.34404780  .00000203  00000+0  17032-3 0  9994
2 65976  81.3012  50.9526 0002703  39.9039 320.2316 13.84628185  4076
SDA_1667                
1 65977U 25230D   25318.33873595  .00000263  00000+0  22283-3 0  9998
2 65977  81.3008  50.9442 0003665  52.8018 307.3474 13.84879177  4078
SDA_1668                
1 65978U 25230E   25318.39844154  .00000330  00000+0  27952-3 0  9997
2 65978  81.3024  50.8644 0004892  86.5291 273.6426 13.85471606  4089
SDA_1669                
1 65979U 25230F   25318.54783582  .00000326  00000+0  27680-3 0  9995
2 65979  81.3026  50.7376 0004907  73.2777 286.8918 13.85238115  4103
SDA_1670                
1 65980U 25230G   25318.41235037  .00000318  00000+0  27179-3 0  9994
2 65980  81.3004  50.8775 0003304  48.7577 311.3864 13.84815452  4085
SDA_1671                
1 65981U 25230H   25318.40068727  .00000311  00000+0  26276-3 0  9994
2 65981  81.3031  50.8692 0004918  80.6800 279.4913 13.85364726  4083
SDA_1672                
1 65982U 25230J   25318.55381102  .00000305  00000+0  25980-3 0  9990
2 65982  81.3038  50.7500 0004042  53.9868 306.1663 13.84957237  4100
SDA_1673                
1 65983U 25230K   25318.61325171  .00000401  00000+0  34057-3 0  9994
2 65983  81.3036  50.6677 0005078  90.5680 269.6059 13.85557658  4119
SDA_1674                
1 65984U 25230L   25318.32774279  .00000279  00000+0  23489-3 0  9990
2 65984  81.3027  50.9341 0004878  82.8473 277.3239 13.85399496  4077
SDA_1675                
1 65985U 25230M   25318.34193774  .00000244  00000+0  20639-3 0  9994
2 65985  81.3004  50.9469 0003153  44.1885 315.9523 13.84728118  4078
SDA_1676                
1 65986U 25230N   25318.56191095  .00000320  00000+0  27467-3 0  9994
2 65986  81.3035  50.7590 0002373  34.9234 325.2078 13.84577471  4101
SDA_1677                
1 65987U 25230P   25318.34330296  .00000210  00000+0  17645-3 0  9994
2 65987  81.3008  50.9503 0002744  40.1366 319.9993 13.84663741  4073
SDA_1678                
1 65988U 25230Q   25318.54198009  .00000356  00000+0  30203-3 0  9997
2 65988  81.3039  50.7378 0004967  88.5917 271.5809 13.85513229  4102
SDA_1679                
1 65989U 25230R   25318.54626861  .00000348  00000+0  29557-3 0  9991
2 65989  81.3038  50.7437 0005081  77.2764 282.8961 13.85311710  4106
SDA_1680                
1 65990U 25230S   25318.69331878  .00000399  00000+0  34181-3 0  9995
2 65990  81.3029  50.6066 0004847  70.0810 290.0869 13.85190559  4123
SDA_1681                
1 65991U 25230T   25318.54715120  .00000401  00000+0  34252-3 0  9999
2 65991  81.3027  50.7366 0004959  74.8846 285.2860 13.85271226  4107
SDA_1682                
1 65992U 25230U   25318.55642414  .00000410  00000+0  35354-3 0  9990
2 65992  81.3055  50.7586 0003385  49.6733 310.4720 13.84834974  4100
SDA_1683                
1 65993U 25230V   25318.55470677  .00000355  00000+0  30376-3 0  9998
2 65993  81.3045  50.7532 0003730  52.1374 308.0120 13.84915942  4107
SDA_1684                
1 65994U 25230W   25318.55779367  .00000367  00000+0  31587-3 0  9995
2 65994  81.3029  50.7523 0003474  39.2398 320.9011 13.84770091  4103
HULIANWANG DIGUI 12A    
1 65995U 25231A   25317.94083907  .00000186  00000+0  23335-3 0  9998
2 65995  50.0063 240.2168 0001084 209.5871 150.4970 13.98297035  4061
HULIANWANG DIGUI 12B    
1 65996U 25231B   25316.94572931  .00000182  00000+0  22460-3 0  9992
2 65996  50.0003 244.2821 0004632 267.9414  92.0958 13.99912148  3920
HULIANWANG DIGUI 12C    
1 65997U 25231C   25317.51171379  .00000181  00000+0  22776-3 0  9997
2 65997  49.9958 241.9517 0000439 335.7161  24.3721 13.98989233  4001
HULIANWANG DIGUI 12D    
1 65998U 25231D   25316.86055969  .00000184  00000+0  22805-3 0  9997
2 65998  50.0003 244.5149 0000616  18.1194 341.9731 13.99349651  3914
HULIANWANG DIGUI 12E    
1 65999U 25231E   25316.72467833  .00000121  00000+0  18258-3 0  9998
2 65999  50.0018 245.1327 0000287 331.9932  28.0955 14.00180423  3897
HULIANWANG DIGUI 12F    
1 66000U 25231F   25317.13850768  .00000180  00000+0  22502-3 0  9993
2 66000  50.0078 243.3316 0000357  29.9054 330.1869 13.99417685  3950
HULIANWANG DIGUI 12G    
1 66001U 25231G   25317.14958389  .00000214  00000+0  24805-3 0  9999
2 66001  50.0041 243.3904 0000803  11.3775 348.7145 13.99591149  3955
HULIANWANG DIGUI 12H    
1 66002U 25231H   25317.86570899  .00000707  00000+0  59028-3 0  9997
2 66002  50.0070 240.5196 0000388 215.5712 144.5165 13.98948659  4054
HULIANWANG DIGUI 12J    
1 66003U 25231J   25317.85921653  .00000129  00000+0  19051-3 0  9995
2 66003  50.0069 240.4833 0001321 337.1202  22.9641 13.99383307  4055
CZ-8A R/B               
1 66004U 25231K   25318.80896882  .00000167  00000+0  11821-3 0  9996
2 66004  50.0034 231.3283 0116683 188.7745 171.1132 14.30039412  4262
STARLINK-34849          
1 66005U 25232A   25318.30006408  .00059962  00000+0  14977-2 0  9991
2 66005  53.1614 281.6805 0001257  82.1062 278.0086 15.39610388  5733
STARLINK-35336          
1 66006U 25232B   25318.75003471  .00103411  00000+0  25626-2 0  9990
2 66006  53.1580 279.1992 0001437  88.1698  67.5958 15.39592638  5046
STARLINK-35196          
1 66007U 25232C   25318.60604934  .00063199  00000+0  15758-2 0  9999
2 66007  53.1603 280.0323 0001865  75.2129 284.9082 15.39640341  5782
STARLINK-35236          
1 66008U 25232D   25318.75003471 -.02010875  00000+0 -49901-1 0  9998
2 66008  53.1595 279.0045 0001415 100.4145 153.0252 15.43306161  5040
STARLINK-35276          
1 66009U 25232E   25318.22584704  .00075738  00000+0  18852-2 0  9991
2 66009  53.1598 281.9259 0000809  66.1983 293.9107 15.39612397  5710
STARLINK-35297          
1 66010U 25232F   25318.75003471  .00085241  00000+0  21217-2 0  9997
2 66010  53.1594 279.0964 0001222  97.0357 110.4064 15.39556417  5048
STARLINK-35256          
1 66011U 25232G   25318.60141015  .00050910  00000+0  12740-2 0  9995
2 66011  53.1584 280.0004 0002774  81.5966 278.5353 15.39625064  5796
STARLINK-35293          
1 66012U 25232H   25318.75003471  .00093209  00000+0  23148-2 0  9997
2 66012  53.1584 279.2494 0000985 127.8894   2.2173 15.39581354  5049
STARLINK-35307          
1 66013U 25232J   25318.61998448  .00091673  00000+0  22691-2 0  9995
2 66013  53.1625 280.1201 0001191 150.6829 209.4242 15.39690221  5799
STARLINK-35395          
1 66014U 25232K   25318.28613242  .00067186  00000+0  16766-2 0  9993
2 66014  53.1589 281.5892 0001263  81.8565 278.2583 15.39588695  5740
STARLINK-34622          
1 66015U 25232L   25318.31196159  .00109839  00000+0  19562-2 0  9990
2 66015  53.1590 281.0372 0000891  20.0740 340.0304 15.49295308  5743
STARLINK-35243          
1 66016U 25232M   25318.75003471 -.02021115  00000+0 -47916-1 0  9990
2 66016  53.1596 278.9611 0001267 109.2474 165.2293 15.44660715  5043
STARLINK-35398          
1 66017U 25232N   25318.62031066  .00064149  00000+0  15978-2 0  9992
2 66017  53.1611 280.1215 0001808  77.1819 282.9388 15.39665037  5794
STARLINK-35376          
1 66018U 25232P   25318.75003471  .00098834  00000+0  24502-2 0  9997
2 66018  53.1582 279.1465 0001415  89.4868  92.0740 15.39603824  5047
STARLINK-35382          
1 66019U 25232Q   25318.75003471  .00112397  00000+0  27846-2 0  9993
2 66019  53.1594 279.0429 0001327 101.7700 131.4104 15.39554671  5042
STARLINK-35430          
1 66020U 25232R   25318.28644938  .00059315  00000+0  14785-2 0  9990
2 66020  53.1594 281.5896 0001877  55.2145 304.9036 15.39677592  5720
STARLINK-35432          
1 66021U 25232S   25318.29109677  .00059976  00000+0  14976-2 0  9993
2 66021  53.1601 281.6197 0001834  90.6021 269.5194 15.39620353  5740
STARLINK-35340          
1 66022U 25232T   25318.60638808  .00079440  00000+0  19749-2 0  9993
2 66022  53.1601 280.0308 0001861  91.7585 268.3633 15.39627056  5792
STARLINK-35394          
1 66023U 25232U   25318.60175457  .00053873  00000+0  13466-2 0  9992
2 66023  53.1596 280.0023 0001069 112.5768 247.5350 15.39635127  5798
STARLINK-35410          
1 66024U 25232V   25318.75003471  .00107375  00000+0  26594-2 0  9998
2 66024  53.1581 279.1993 0001378 120.0748  33.8912 15.39589446  5032
STARLINK-35280          
1 66025U 25232W   25318.14270748  .00043638  00000+0  10956-2 0  9991
2 66025  53.1610 282.1108 0001023 102.5581 257.5538 15.39593561  5723
STARLINK-34812          
1 66026U 25232X   25318.75003471  .00101304  00000+0  25100-2 0  9998
2 66026  53.1581 279.1485 0001472 110.9657  68.7155 15.39608980  4986
STARLINK-35341          
1 66027U 25232Y   25318.18438829  .00064125  00000+0  15996-2 0  9996
2 66027  53.1597 281.6559 0001238 119.3702 240.7426 15.39621837  5731
STARLINK-35339          
1 66028U 25232Z   25318.30957713  .00061349  00000+0  15310-2 0  9994
2 66028  53.1601 281.0159 0001147  87.7200 272.3936 15.39628532  5756
STARLINK-35399          
1 66029U 25232AA  25318.75003471  .00095304  00000+0  23675-2 0  9998
2 66029  53.1596 278.8879 0001260  80.4033 228.1678 15.39560520  4970
STARLINK-35431          
1 66030U 25232AB  25318.75003471  .00102251  00000+0  25359-2 0  9991
2 66030  53.1600 278.8360 0001449  86.7243 247.5634 15.39574689  4972
STARLINK-35326          
1 66031U 25232AC  25318.60089142  .00095212  00000+0  16956-2 0  9996
2 66031  53.1589 279.2743 0002305  74.3973 285.7291 15.49367293  5802
STARLINK-35311          
1 66032U 25232AD  25318.60056091  .00080084  00000+0  14337-2 0  9996
2 66032  53.1584 279.2720 0001583  70.7861 289.3319 15.49299603  5806
